start=new Date('2023-05-05T00:00:00.000Z').valueOf();
sats=[{"CLASSIFICATION_TYPE":"U","SITE":"AFETR","FILE":"3900964","RCS_SIZE":"LARGE","PERIOD":"95.590","OBJECT_NAME":"STARLINK-1695","EPHEMERIS_TYPE":"0","ELEMENT_SET_NO":"999","DECAY_DATE":null,"MEAN_ANOMALY":"290.0550","MEAN_MOTION_DOT":"0.00022812","SEMIMAJOR_AXIS":"6925.244","REF_FRAME":"TEME","BSTAR":"0.00154400000000","MEAN_MOTION":"15.06434093","NORAD_CAT_ID":"46329","OBJECT_ID":"2020-062E","CENTER_NAME":"EARTH","LAUNCH_DATE":"2020-09-03","COUNTRY_CODE":"US","RA_OF_ASC_NODE":"344.4287","OBJECT_TYPE":"PAYLOAD","MEAN_MOTION_DDOT":"0.0000000000000","PERIAPSIS":"546.273","EPOCH":"2023-05-04T21:31:29.424576","REV_AT_EPOCH":"14804","TIME_SYSTEM":"UTC","GP_ID":"231244520","INCLINATION":"53.0547","TLE_LINE1":"1 46329U 20062E   23124.89686834  .00022812  00000-0  15440-2 0  9999","ECCENTRICITY":"0.00012080","TLE_LINE2":"2 46329  53.0547 344.4287 0001208  70.0569 290.0550 15.06434093148043","APOAPSIS":"547.946","MEAN_ELEMENT_THEORY":"SGP4","ARG_OF_PERICENTER":"70.0569"},{"SEMIMAJOR_AXIS":"6925.269","MEAN_MOTION_DOT":"0.00019069","MEAN_ANOMALY":"261.5206","DECAY_DATE":null,"NORAD_CAT_ID":"46330","MEAN_MOTION":"15.06426012","BSTAR":"0.00129470000000","REF_FRAME":"TEME","SITE":"AFETR","CLASSIFICATION_TYPE":"U","ELEMENT_SET_NO":"999","EPHEMERIS_TYPE":"0","OBJECT_NAME":"STARLINK-1710","PERIOD":"95.590","RCS_SIZE":"LARGE","FILE":"3900962","APOAPSIS":"547.846","TLE_LINE2":"2 46330  53.0545 344.4810 0001029  98.5899 261.5206 15.06426012147870","ARG_OF_PERICENTER":"98.5899","MEAN_ELEMENT_THEORY":"SGP4","COUNTRY_CODE":"US","LAUNCH_DATE":"2020-09-03","CENTER_NAME":"EARTH","OBJECT_ID":"2020-062F","INCLINATION":"53.0545","TLE_LINE1":"1 46330U 20062F   23124.88581826  .00019069  00000-0  12947-2 0  9994","ECCENTRICITY":"0.00010290","GP_ID":"231244544","REV_AT_EPOCH":"14787","TIME_SYSTEM":"UTC","PERIAPSIS":"546.421","EPOCH":"2023-05-04T21:15:34.697664","MEAN_MOTION_DDOT":"0.0000000000000","OBJECT_TYPE":"PAYLOAD","RA_OF_ASC_NODE":"344.4810"},{"REV_AT_EPOCH":"14759","TIME_SYSTEM":"UTC","EPOCH":"2023-05-04T22:06:00.128448","PERIAPSIS":"546.217","TLE_LINE1":"1 46331U 20062G   23124.92083482  .00021906  00000-0  14839-2 0  9990","INCLINATION":"53.0549","ECCENTRICITY":"0.00013200","GP_ID":"231268287","OBJECT_TYPE":"PAYLOAD","RA_OF_ASC_NODE":"4.3302","MEAN_MOTION_DDOT":"0.0000000000000","COUNTRY_CODE":"US","CENTER_NAME":"EARTH","OBJECT_ID":"2020-062G","LAUNCH_DATE":"2020-09-03","ARG_OF_PERICENTER":"110.1405","MEAN_ELEMENT_THEORY":"SGP4","APOAPSIS":"548.045","TLE_LINE2":"2 46331  53.0549   4.3302 0001320 110.1405 249.9726 15.06427014147590","OBJECT_NAME":"STARLINK-1719","PERIOD":"95.590","ELEMENT_SET_NO":"999","EPHEMERIS_TYPE":"0","FILE":"3901186","RCS_SIZE":"LARGE","CLASSIFICATION_TYPE":"U","SITE":"AFETR","BSTAR":"0.00148390000000","REF_FRAME":"TEME","NORAD_CAT_ID":"46331","MEAN_MOTION":"15.06427014","MEAN_MOTION_DOT":"0.00021906","SEMIMAJOR_AXIS":"6925.266","MEAN_ANOMALY":"249.9726","DECAY_DATE":null},{"ARG_OF_PERICENTER":"90.4606","MEAN_ELEMENT_THEORY":"SGP4","APOAPSIS":"521.423","TLE_LINE2":"2 46332  53.0540   0.6146 0003488  90.4606 269.6787 15.15646781147643","GP_ID":"231269037","TLE_LINE1":"1 46332U 20062H   23124.90196459  .00038202  00000-0  19905-2 0  9994","INCLINATION":"53.0540","ECCENTRICITY":"0.00034880","PERIAPSIS":"516.612","EPOCH":"2023-05-04T21:38:49.740576","REV_AT_EPOCH":"14764","TIME_SYSTEM":"UTC","MEAN_MOTION_DDOT":"0.0000000000000","RA_OF_ASC_NODE":"0.6146","OBJECT_TYPE":"PAYLOAD","COUNTRY_CODE":"US","LAUNCH_DATE":"2020-09-03","OBJECT_ID":"2020-062H","CENTER_NAME":"EARTH","MEAN_MOTION":"15.15646781","NORAD_CAT_ID":"46332","REF_FRAME":"TEME","BSTAR":"0.00199050000000","SEMIMAJOR_AXIS":"6897.153","MEAN_MOTION_DOT":"0.00038202","DECAY_DATE":null,"MEAN_ANOMALY":"269.6787","EPHEMERIS_TYPE":"0","ELEMENT_SET_NO":"999","PERIOD":"95.009","OBJECT_NAME":"STARLINK-1721","RCS_SIZE":"LARGE","FILE":"3901186","CLASSIFICATION_TYPE":"U","SITE":"AFETR"},{"CLASSIFICATION_TYPE":"U","SITE":"AFETR","OBJECT_NAME":"STARLINK-1723","PERIOD":"95.591","ELEMENT_SET_NO":"999","EPHEMERIS_TYPE":"0","FILE":"3901186","RCS_SIZE":"LARGE","MEAN_MOTION_DOT":"0.00021944","SEMIMAJOR_AXIS":"6925.279","MEAN_ANOMALY":"275.4384","DECAY_DATE":null,"BSTAR":"0.00148660000000","REF_FRAME":"TEME","NORAD_CAT_ID":"46333","MEAN_MOTION":"15.06422716","COUNTRY_CODE":"US","CENTER_NAME":"EARTH","OBJECT_ID":"2020-062J","LAUNCH_DATE":"2020-09-03","REV_AT_EPOCH":"14758","TIME_SYSTEM":"UTC","PERIAPSIS":"546.262","EPOCH":"2023-05-04T21:07:37.151040","TLE_LINE1":"1 46333U 20062J   23124.88029110  .00021944  00000-0  14866-2 0  9997","ECCENTRICITY":"0.00012730","INCLINATION":"53.0567","GP_ID":"231269289","OBJECT_TYPE":"PAYLOAD","RA_OF_ASC_NODE":"4.5041","MEAN_MOTION_DDOT":"0.0000000000000","APOAPSIS":"548.026","TLE_LINE2":"2 46333  53.0567   4.5041 0001273  84.6750 275.4384 15.06422716147586","ARG_OF_PERICENTER":"84.6750","MEAN_ELEMENT_THEORY":"SGP4"},{"COUNTRY_CODE":"US","LAUNCH_DATE":"2020-09-03","OBJECT_ID":"2020-062K","CENTER_NAME":"EARTH","GP_ID":"231269540","INCLINATION":"53.0539","TLE_LINE1":"1 46334U 20062K   23124.88217076  .00020252  00000-0  13738-2 0  9996","ECCENTRICITY":"0.00010010","EPOCH":"2023-05-04T21:10:19.553664","PERIAPSIS":"546.455","REV_AT_EPOCH":"14786","TIME_SYSTEM":"UTC","MEAN_MOTION_DDOT":"0.0000000000000","RA_OF_ASC_NODE":"344.7743","OBJECT_TYPE":"PAYLOAD","APOAPSIS":"547.842","TLE_LINE2":"2 46334  53.0539 344.7743 0001001  69.2632 290.8464 15.06421275147861","ARG_OF_PERICENTER":"69.2632","MEAN_ELEMENT_THEORY":"SGP4","CLASSIFICATION_TYPE":"U","SITE":"AFETR","EPHEMERIS_TYPE":"0","ELEMENT_SET_NO":"999","PERIOD":"95.591","OBJECT_NAME":"STARLINK-1725","RCS_SIZE":"LARGE","FILE":"3901186","SEMIMAJOR_AXIS":"6925.283","MEAN_MOTION_DOT":"0.00020252","DECAY_DATE":null,"MEAN_ANOMALY":"290.8464","MEAN_MOTION":"15.06421275","NORAD_CAT_ID":"46334","REF_FRAME":"TEME","BSTAR":"0.00137380000000"},{"LAUNCH_DATE":"2020-09-03","OBJECT_ID":"2020-062L","CENTER_NAME":"EARTH","COUNTRY_CODE":"US","MEAN_MOTION_DDOT":"0.0000000000000","RA_OF_ASC_NODE":"4.3721","OBJECT_TYPE":"PAYLOAD","GP_ID":"231268786","TLE_LINE1":"1 46335U 20062L   23124.90977590  .00024440  00000-0  16531-2 0  9991","INCLINATION":"53.0548","ECCENTRICITY":"0.00012630","PERIAPSIS":"546.278","EPOCH":"2023-05-04T21:50:04.637760","REV_AT_EPOCH":"14759","TIME_SYSTEM":"UTC","TLE_LINE2":"2 46335  53.0548   4.3721 0001263 120.3099 239.8015 15.06419791147598","APOAPSIS":"548.028","MEAN_ELEMENT_THEORY":"SGP4","ARG_OF_PERICENTER":"120.3099","CLASSIFICATION_TYPE":"U","SITE":"AFETR","RCS_SIZE":"LARGE","FILE":"3901186","EPHEMERIS_TYPE":"0","ELEMENT_SET_NO":"999","PERIOD":"95.591","OBJECT_NAME":"STARLINK-1727","DECAY_DATE":null,"MEAN_ANOMALY":"239.8015","SEMIMAJOR_AXIS":"6925.288","MEAN_MOTION_DOT":"0.00024440","MEAN_MOTION":"15.06419791","NORAD_CAT_ID":"46335","REF_FRAME":"TEME","BSTAR":"0.00165310000000"},{"TLE_LINE2":"2 46336  53.0546 344.4138 0001273  68.0521 292.0603 15.06428999147860","APOAPSIS":"548.006","MEAN_ELEMENT_THEORY":"SGP4","ARG_OF_PERICENTER":"68.0521","LAUNCH_DATE":"2020-09-03","CENTER_NAME":"EARTH","OBJECT_ID":"2020-062M","COUNTRY_CODE":"US","MEAN_MOTION_DDOT":"0.0000000000000","OBJECT_TYPE":"PAYLOAD","RA_OF_ASC_NODE":"344.4138","TLE_LINE1":"1 46336U 20062M   23124.90055425  .00018880  00000-0  12820-2 0  9994","INCLINATION":"53.0546","ECCENTRICITY":"0.00012730","GP_ID":"231268540","REV_AT_EPOCH":"14786","TIME_SYSTEM":"UTC","EPOCH":"2023-05-04T21:36:47.887200","PERIAPSIS":"546.243","MEAN_ANOMALY":"292.0603","DECAY_DATE":null,"SEMIMAJOR_AXIS":"6925.260","MEAN_MOTION_DOT":"0.00018880","NORAD_CAT_ID":"46336","MEAN_MOTION":"15.06428999","BSTAR":"0.00128200000000","REF_FRAME":"TEME","SITE":"AFETR","CLASSIFICATION_TYPE":"U","RCS_SIZE":"LARGE","FILE":"3901186","ELEMENT_SET_NO":"999","EPHEMERIS_TYPE":"0","OBJECT_NAME":"STARLINK-1738","PERIOD":"95.590"},{"LAUNCH_DATE":"2020-09-03","OBJECT_ID":"2020-062N","CENTER_NAME":"EARTH","COUNTRY_CODE":"US","MEAN_MOTION_DDOT":"0.0000000000000","RA_OF_ASC_NODE":"344.3454","OBJECT_TYPE":"PAYLOAD","GP_ID":"231269789","ECCENTRICITY":"0.00012940","TLE_LINE1":"1 46337U 20062N   23124.91530681  .00021449  00000-0  14534-2 0  9997","INCLINATION":"53.0547","EPOCH":"2023-05-04T21:58:02.508384","PERIAPSIS":"546.237","REV_AT_EPOCH":"14787","TIME_SYSTEM":"UTC","TLE_LINE2":"2 46337  53.0547 344.3454 0001294  84.7342 275.3795 15.06426368147876","APOAPSIS":"548.029","MEAN_ELEMENT_THEORY":"SGP4","ARG_OF_PERICENTER":"84.7342","SITE":"AFETR","CLASSIFICATION_TYPE":"U","RCS_SIZE":"LARGE","FILE":"3901186","EPHEMERIS_TYPE":"0","ELEMENT_SET_NO":"999","PERIOD":"95.590","OBJECT_NAME":"STARLINK-1750","DECAY_DATE":null,"MEAN_ANOMALY":"275.3795","SEMIMAJOR_AXIS":"6925.268","MEAN_MOTION_DOT":"0.00021449","MEAN_MOTION":"15.06426368","NORAD_CAT_ID":"46337","REF_FRAME":"TEME","BSTAR":"0.00145340000000"},{"APOAPSIS":"547.815","TLE_LINE2":"2 46338  53.0548   4.4161 0000990  88.1934 271.9168 15.06427540147581","ARG_OF_PERICENTER":"88.1934","MEAN_ELEMENT_THEORY":"SGP4","COUNTRY_CODE":"US","LAUNCH_DATE":"2020-09-03","OBJECT_ID":"2020-062P","CENTER_NAME":"EARTH","GP_ID":"231270040","ECCENTRICITY":"0.00009900","TLE_LINE1":"1 46338U 20062P   23124.89871811  .00018165  00000-0  12343-2 0  9995","INCLINATION":"53.0548","EPOCH":"2023-05-04T21:34:09.244704","PERIAPSIS":"546.444","REV_AT_EPOCH":"14758","TIME_SYSTEM":"UTC","MEAN_MOTION_DDOT":"0.0000000000000","RA_OF_ASC_NODE":"4.4161","OBJECT_TYPE":"PAYLOAD","SEMIMAJOR_AXIS":"6925.264","MEAN_MOTION_DOT":"0.00018165","DECAY_DATE":null,"MEAN_ANOMALY":"271.9168","MEAN_MOTION":"15.06427540","NORAD_CAT_ID":"46338","REF_FRAME":"TEME","BSTAR":"0.00123430000000","SITE":"AFETR","CLASSIFICATION_TYPE":"U","EPHEMERIS_TYPE":"0","ELEMENT_SET_NO":"999","PERIOD":"95.590","OBJECT_NAME":"STARLINK-1752","RCS_SIZE":"LARGE","FILE":"3901186"}];
